GOES 1 [-]              
1 08366U 75100A   08196.51266958  .00000018  00000-0  10000-3 0  7511
2 08366  14.4411 350.5112 0003618 224.8782 135.1220  1.00292530119566
GOES 2 [-]              
1 10061U 77048A   08197.51606713  .00000055  00000-0  10000-3 0  4627
2 10061  14.5889 358.9037 0017739 241.2392 118.6128  0.99394869 58456
GOES 3 [P]              
1 10953U 78062A   08197.48059247 -.00000119  00000-0  10000-3 0  1702
2 10953  14.2384   2.7569 0000736   7.9185 352.1170  1.00279699 63299
GOES 4 [-]              
1 11964U 80074A   08196.20469177 -.00000178  00000-0  10000-3 0    71
2 11964  14.5287   6.4678 0034446 282.1255  77.5120  0.99233061 62673
GOES 5 [-]              
1 12472U 81049A   08197.50340954 -.00000163  00000-0  10000-3 0   494
2 12472  13.3435  17.0217 0004071 176.0392 183.9995  1.00339259 57339
GOES 6 [-]              
1 14050U 83041A   08196.59316951  .00000004  00000-0  10000-3 0   493
2 14050  12.9247  22.1766 0001004 143.9191 216.1202  1.00314142150426
GOES 7 [-]              
1 17561U 87022A   08197.62478122  .00000048  00000-0  10000-3 0  5167
2 17561  11.4765  40.4646 0003768 189.7489 110.0647  1.00284499 61531
GOES 8 [-]              
1 23051U 94022A   08192.83004037  .00000001  00000-0  10000-3 0  3981
2 23051   4.8814  78.5854 0006218 149.6977 210.1946  0.98905677 59340
GOES 9 [P]              
1 23581U 95025A   08196.78962456  .00000016  00000-0  10000-3 0  6630
2 23581   4.4585  74.7979 0002906 324.6255  35.1851  0.98800451 48093
GOES 10 [+]             
1 24786U 97019A   08196.11132192 -.00000278  00000-0  10000-3 0  4714
2 24786   2.7820  78.9945 0001258 104.3353  89.5758  1.00272732 41118
GOES 11 [+]             
1 26352U 00022A   08197.52503683  .00000099  00000-0  00000+0 0  8861
2 26352   0.4133 263.6075 0004546 293.9255 149.7234  1.00274999 30020
GOES 12 [+]             
1 26871U 01031A   08197.46711641 -.00000242  00000-0  00000+0 0  6337
2 26871   0.0669 103.6872 0003769 341.1667 302.2417  1.00271660 25635
GOES 13 [S]             
1 29155U 06018A   08198.22503910 -.00000080  00000-0  10000-3 0  4500
2 29155   0.3914  82.8170 0000823  92.0257  95.3609  1.00271520  7888
